STARLINK-36590          
1 67577U 26016S   26048.43350299  .00123689  00000+0  81696-3 0  9993
2 67577  97.2833 107.9032 0002142 107.9524 252.1975 15.75223335  3612
STARLINK-36613          
1 67578U 26016T   26048.47969497  .00167578  00000+0  85600-3 0  9998
2 67578  97.2838 107.9938 0001322 114.1378 246.0029 15.80890487  3626
STARLINK-36571          
1 67579U 26016U   26048.24680367  .00175108  00000+0  11489-2 0  9991
2 67579  97.2830 107.6983 0002213 110.3550 249.7953 15.75230099  3588
STARLINK-36612          
1 67580U 26016V   26048.16060473  .00259603  00000+0  13117-2 0  9997
2 67580  97.2841 107.6624 0001170 100.6824 259.4576 15.80888792  3574
STARLINK-36632          
1 67581U 26016W   26048.23480486  .00079520  00000+0  52871-3 0  9995
2 67581  97.2840 107.7152 0001724 114.6453 245.4992 15.75204336  3587
STARLINK-36609          
1 67582U 26016X   26048.25068530  .00129045  00000+0  85029-3 0  9999
2 67582  97.2832 107.6921 0001917 108.6697 251.4776 15.75263866  3589
STARLINK-36577          
1 67583U 26016Y   26048.22242838  .00168116  00000+0  85937-3 0  9992
2 67583  97.2846 107.7314 0001394  70.0120 290.1298 15.80873280  3586
STARLINK-36419          
1 67584U 26016Z   26048.25002315 -.01916979  00000+0 -13424-1 0  9991
2 67584  97.2847 107.7704 0001979  83.4614  90.9981 15.77342177  4764
STARLINK-36560          
1 67585U 26016AA  26048.15340878  .00112373  00000+0  57898-3 0  9998
2 67585  97.2848 107.6728 0001770  42.9449 317.1957 15.80849218  3573
NAVSTAR 85 (USA 581)    
1 67588U 26017A   26046.54502406  .00000017  00000+0  00000+0 0  9990
2 67588  55.0067  93.6366 0000902  51.2369 308.8521  2.00561312429179
STARLINK-36641          
1 67589U 26018A   26048.41878441  .00214862  00000+0  14002-2 0  9990
2 67589  97.2840 113.1788 0000724  75.2465 284.8881 15.75277062  4115
STARLINK-36376          
1 67590U 26018B   26048.40241596 -.00440972  00000+0 -24756-2 0  9998
2 67590  97.2837 113.2013 0000520  77.1938 282.9388 15.80319831  4113
