CCSDS_OMM_VERS = 2.0
CREATION_DATE  = 
ORIGINATOR     = 

OBJECT_NAME    = STARLINK-36590
OBJECT_ID      = 2026-016S
CENTER_NAME    = EARTH
REF_FRAME      = TEME
TIME_SYSTEM    = UTC
MEAN_ELEMENT_THEORY = SGP/SGP4

EPOCH          = 2026-02-17T10:24:14.658336
MEAN_MOTION    = 15.75223335
ECCENTRICITY   = .0002142
INCLINATION    = 97.2833
RA_OF_ASC_NODE = 107.9032
ARG_OF_PERICENTER = 107.9524
MEAN_ANOMALY   = 252.1975

EPHEMERIS_TYPE = 0
CLASSIFICATION_TYPE = U
NORAD_CAT_ID   = 67577
ELEMENT_SET_NO = 999
REV_AT_EPOCH   = 361
BSTAR          = .81696E-3
MEAN_MOTION_DOT = .123689E-2
MEAN_MOTION_DDOT = 0

CCSDS_OMM_VERS = 2.0
CREATION_DATE  = 
ORIGINATOR     = 

OBJECT_NAME    = STARLINK-36613
OBJECT_ID      = 2026-016T
CENTER_NAME    = EARTH
REF_FRAME      = TEME
TIME_SYSTEM    = UTC
MEAN_ELEMENT_THEORY = SGP/SGP4

EPOCH          = 2026-02-17T11:30:45.645408
MEAN_MOTION    = 15.80890487
ECCENTRICITY   = .0001322
INCLINATION    = 97.2838
RA_OF_ASC_NODE = 107.9938
ARG_OF_PERICENTER = 114.1378
MEAN_ANOMALY   = 246.0029

EPHEMERIS_TYPE = 0
CLASSIFICATION_TYPE = U
NORAD_CAT_ID   = 67578
ELEMENT_SET_NO = 999
REV_AT_EPOCH   = 362
BSTAR          = .856E-3
MEAN_MOTION_DOT = .167578E-2
MEAN_MOTION_DDOT = 0

CCSDS_OMM_VERS = 2.0
CREATION_DATE  = 
ORIGINATOR     = 

OBJECT_NAME    = STARLINK-36571
OBJECT_ID      = 2026-016U
CENTER_NAME    = EARTH
REF_FRAME      = TEME
TIME_SYSTEM    = UTC
MEAN_ELEMENT_THEORY = SGP/SGP4

EPOCH          = 2026-02-17T05:55:23.837088
MEAN_MOTION    = 15.75230099
ECCENTRICITY   = .00022138
INCLINATION    = 97.2830
RA_OF_ASC_NODE = 107.6983
ARG_OF_PERICENTER = 110.3550
MEAN_ANOMALY   = 249.7953

EPHEMERIS_TYPE = 0
CLASSIFICATION_TYPE = U
NORAD_CAT_ID   = 67579
ELEMENT_SET_NO = 999
REV_AT_EPOCH   = 358
BSTAR          = .1148917E-2
MEAN_MOTION_DOT = .175108E-2
MEAN_MOTION_DDOT = 0

CCSDS_OMM_VERS = 2.0
CREATION_DATE  = 
ORIGINATOR     = 

OBJECT_NAME    = STARLINK-36612
OBJECT_ID      = 2026-016V
CENTER_NAME    = EARTH
REF_FRAME      = TEME
TIME_SYSTEM    = UTC
MEAN_ELEMENT_THEORY = SGP/SGP4

EPOCH          = 2026-02-17T03:51:16.248672
MEAN_MOTION    = 15.80888792
ECCENTRICITY   = .00011706
INCLINATION    = 97.2841
RA_OF_ASC_NODE = 107.6624
ARG_OF_PERICENTER = 100.6824
MEAN_ANOMALY   = 259.4576

EPHEMERIS_TYPE = 0
CLASSIFICATION_TYPE = U
NORAD_CAT_ID   = 67580
ELEMENT_SET_NO = 999
REV_AT_EPOCH   = 357
BSTAR          = .13117495E-2
MEAN_MOTION_DOT = .259603E-2
MEAN_MOTION_DDOT = 0

CCSDS_OMM_VERS = 2.0
CREATION_DATE  = 
ORIGINATOR     = 

OBJECT_NAME    = STARLINK-36632
OBJECT_ID      = 2026-016W
CENTER_NAME    = EARTH
REF_FRAME      = TEME
TIME_SYSTEM    = UTC
MEAN_ELEMENT_THEORY = SGP/SGP4

EPOCH          = 2026-02-17T05:38:07.139904
MEAN_MOTION    = 15.75204336
ECCENTRICITY   = .00017249
INCLINATION    = 97.2840
RA_OF_ASC_NODE = 107.7152
ARG_OF_PERICENTER = 114.6453
MEAN_ANOMALY   = 245.4992

EPHEMERIS_TYPE = 0
CLASSIFICATION_TYPE = U
NORAD_CAT_ID   = 67581
ELEMENT_SET_NO = 999
REV_AT_EPOCH   = 358
BSTAR          = .52871464E-3
MEAN_MOTION_DOT = .7952E-3
MEAN_MOTION_DDOT = 0

CCSDS_OMM_VERS = 2.0
CREATION_DATE  = 
ORIGINATOR     = 

OBJECT_NAME    = STARLINK-36609
OBJECT_ID      = 2026-016X
CENTER_NAME    = EARTH
REF_FRAME      = TEME
TIME_SYSTEM    = UTC
MEAN_ELEMENT_THEORY = SGP/SGP4

EPOCH          = 2026-02-17T06:00:59.209920
MEAN_MOTION    = 15.75263866
ECCENTRICITY   = .00019171
INCLINATION    = 97.2832
RA_OF_ASC_NODE = 107.6921
ARG_OF_PERICENTER = 108.6697
MEAN_ANOMALY   = 251.4776

EPHEMERIS_TYPE = 0
CLASSIFICATION_TYPE = U
NORAD_CAT_ID   = 67582
ELEMENT_SET_NO = 999
REV_AT_EPOCH   = 358
BSTAR          = .85028539E-3
MEAN_MOTION_DOT = .129045E-2
MEAN_MOTION_DDOT = 0

CCSDS_OMM_VERS = 2.0
CREATION_DATE  = 
ORIGINATOR     = 

OBJECT_NAME    = STARLINK-36577
OBJECT_ID      = 2026-016Y
CENTER_NAME    = EARTH
REF_FRAME      = TEME
TIME_SYSTEM    = UTC
MEAN_ELEMENT_THEORY = SGP/SGP4

EPOCH          = 2026-02-17T05:20:17.812032
MEAN_MOTION    = 15.80873280
ECCENTRICITY   = .00013948
INCLINATION    = 97.2846
RA_OF_ASC_NODE = 107.7314
ARG_OF_PERICENTER = 70.0120
MEAN_ANOMALY   = 290.1298

EPHEMERIS_TYPE = 0
CLASSIFICATION_TYPE = U
NORAD_CAT_ID   = 67583
ELEMENT_SET_NO = 999
REV_AT_EPOCH   = 358
BSTAR          = .85936549E-3
MEAN_MOTION_DOT = .168116E-2
MEAN_MOTION_DDOT = 0

CCSDS_OMM_VERS = 2.0
CREATION_DATE  = 
ORIGINATOR     = 

OBJECT_NAME    = STARLINK-36419
OBJECT_ID      = 2026-016Z
CENTER_NAME    = EARTH
REF_FRAME      = TEME
TIME_SYSTEM    = UTC
MEAN_ELEMENT_THEORY = SGP/SGP4

EPOCH          = 2026-02-17T06:00:02.000160
MEAN_MOTION    = 15.77342177
ECCENTRICITY   = .00019795
INCLINATION    = 97.2847
RA_OF_ASC_NODE = 107.7704
ARG_OF_PERICENTER = 83.4614
MEAN_ANOMALY   = 90.9981

EPHEMERIS_TYPE = 0
CLASSIFICATION_TYPE = U
NORAD_CAT_ID   = 67584
ELEMENT_SET_NO = 999
REV_AT_EPOCH   = 476
BSTAR          = -.13424397E-1
MEAN_MOTION_DOT = -.1916979E-1
MEAN_MOTION_DDOT = 0

CCSDS_OMM_VERS = 2.0
CREATION_DATE  = 
ORIGINATOR     = 

OBJECT_NAME    = STARLINK-36560
OBJECT_ID      = 2026-016AA
CENTER_NAME    = EARTH
REF_FRAME      = TEME
TIME_SYSTEM    = UTC
MEAN_ELEMENT_THEORY = SGP/SGP4

EPOCH          = 2026-02-17T03:40:54.518592
MEAN_MOTION    = 15.80849218
ECCENTRICITY   = .00017701
INCLINATION    = 97.2848
RA_OF_ASC_NODE = 107.6728
ARG_OF_PERICENTER = 42.9449
MEAN_ANOMALY   = 317.1957

EPHEMERIS_TYPE = 0
CLASSIFICATION_TYPE = U
NORAD_CAT_ID   = 67585
ELEMENT_SET_NO = 999
REV_AT_EPOCH   = 357
BSTAR          = .57898064E-3
MEAN_MOTION_DOT = .112373E-2
MEAN_MOTION_DDOT = 0

CCSDS_OMM_VERS = 2.0
CREATION_DATE  = 
ORIGINATOR     = 

OBJECT_NAME    = NAVSTAR 85 (USA 581)
OBJECT_ID      = 2026-017A
CENTER_NAME    = EARTH
REF_FRAME      = TEME
TIME_SYSTEM    = UTC
MEAN_ELEMENT_THEORY = SGP/SGP4

EPOCH          = 2026-02-15T13:04:50.078784
MEAN_MOTION    = 2.00561312
ECCENTRICITY   = .00009027
INCLINATION    = 55.0067
RA_OF_ASC_NODE = 93.6366
ARG_OF_PERICENTER = 51.2369
MEAN_ANOMALY   = 308.8521

EPHEMERIS_TYPE = 0
CLASSIFICATION_TYPE = U
NORAD_CAT_ID   = 67588
ELEMENT_SET_NO = 999
REV_AT_EPOCH   = 42917
BSTAR          = 0
MEAN_MOTION_DOT = .17E-6
MEAN_MOTION_DDOT = 0

CCSDS_OMM_VERS = 2.0
CREATION_DATE  = 
ORIGINATOR     = 

OBJECT_NAME    = STARLINK-36641
OBJECT_ID      = 2026-018A
CENTER_NAME    = EARTH
REF_FRAME      = TEME
TIME_SYSTEM    = UTC
MEAN_ELEMENT_THEORY = SGP/SGP4

EPOCH          = 2026-02-17T10:03:02.973024
MEAN_MOTION    = 15.75277062
ECCENTRICITY   = .0000724
INCLINATION    = 97.2840
RA_OF_ASC_NODE = 113.1788
ARG_OF_PERICENTER = 75.2465
MEAN_ANOMALY   = 284.8881

EPHEMERIS_TYPE = 0
CLASSIFICATION_TYPE = U
NORAD_CAT_ID   = 67589
ELEMENT_SET_NO = 999
REV_AT_EPOCH   = 411
BSTAR          = .14002E-2
MEAN_MOTION_DOT = .214862E-2
MEAN_MOTION_DDOT = 0

CCSDS_OMM_VERS = 2.0
CREATION_DATE  = 
ORIGINATOR     = 

OBJECT_NAME    = STARLINK-36376
OBJECT_ID      = 2026-018B
CENTER_NAME    = EARTH
REF_FRAME      = TEME
TIME_SYSTEM    = UTC
MEAN_ELEMENT_THEORY = SGP/SGP4

EPOCH          = 2026-02-17T09:39:28.738944
MEAN_MOTION    = 15.80319831
ECCENTRICITY   = .000052
INCLINATION    = 97.2837
RA_OF_ASC_NODE = 113.2013
ARG_OF_PERICENTER = 77.1938
MEAN_ANOMALY   = 282.9388

EPHEMERIS_TYPE = 0
CLASSIFICATION_TYPE = U
NORAD_CAT_ID   = 67590
ELEMENT_SET_NO = 999
REV_AT_EPOCH   = 411
BSTAR          = -.24756E-2
MEAN_MOTION_DOT = -.440972E-2
MEAN_MOTION_DDOT = 0

